{
  "type": "FeatureCollection",
  "features": [
    {
      "type": "Feature",
      "properties": {
        "norad_id": 66823,
        "name": "STARLINK-35957",
        "group": "last-30-days",
        "lat": 67.24366283201879,
        "lon": -42.05635290286219,
        "alt_km": 327.3392337387968,
        "timestamp": "2025-12-12T22:42:11.307612+00:00",
        "meta_object_name": "STARLINK-35957",
        "meta_object_id": "2025-280C",
        "meta_epoch": "2025-12-12T06:00:00.999648",
        "meta_mean_motion": 15.81925691,
        "meta_eccentricity": 0.00037516,
        "meta_inclination": 69.9928,
        "meta_ra_of_asc_node": 200.2363,
        "meta_arg_of_pericenter": 277.0059,
        "meta_mean_anomaly": 185.1188,
        "meta_ephemeris_type": 0,
        "meta_classification_type": "U",
        "meta_norad_cat_id": 66823,
        "meta_element_set_no": 999,
        "meta_rev_at_epoch": 282,
        "meta_bstar": -0.0096456948,
        "meta_mean_motion_dot": -0.01702559,
        "meta_mean_motion_ddot": 0,
        "tle_line1": "1 66823U 25280C   25346.25001157 -.01702559  00000+0 -96457-2 0  9996",
        "tle_line2": "2 66823  69.9928 200.2363 0003751 277.0059 185.1188 15.81925691  2823"
      },
      "geometry": {
        "type": "Point",
        "coordinates": [
          -42.05635290286219,
          67.24366283201879
        ]
      }
    },
    {
      "type": "Feature",
      "properties": {
        "norad_id": 66824,
        "name": "STARLINK-35896",
        "group": "last-30-days",
        "lat": 66.2256587055039,
        "lon": -37.56197835844291,
        "alt_km": 327.26129219644736,
        "timestamp": "2025-12-12T22:42:11.307622+00:00",
        "meta_object_name": "STARLINK-35896",
        "meta_object_id": "2025-280D",
        "meta_epoch": "2025-12-12T06:00:00.999648",
        "meta_mean_motion": 15.81934315,
        "meta_eccentricity": 0.00035699,
        "meta_inclination": 69.9928,
        "meta_ra_of_asc_node": 200.2337,
        "meta_arg_of_pericenter": 271.8253,
        "meta_mean_anomaly": 192.338,
        "meta_ephemeris_type": 0,
        "meta_classification_type": "U",
        "meta_norad_cat_id": 66824,
        "meta_element_set_no": 999,
        "meta_rev_at_epoch": 282,
        "meta_bstar": -0.0096802984,
        "meta_mean_motion_dot": -0.01708212,
        "meta_mean_motion_ddot": 0,
        "tle_line1": "1 66824U 25280D   25346.25001157 -.01708212  00000+0 -96803-2 0  9994",
        "tle_line2": "2 66824  69.9928 200.2337 0003569 271.8253 192.3380 15.81934315  2827"
      },
      "geometry": {
        "type": "Point",
        "coordinates": [
          -37.56197835844291,
          66.2256587055039
        ]
      }
    },
    {
      "type": "Feature",
      "properties": {
        "norad_id": 66825,
        "name": "STARLINK-35476",
        "group": "last-30-days",
        "lat": 65.06914116407873,
        "lon": -33.37401171556365,
        "alt_km": 327.5515067858878,
        "timestamp": "2025-12-12T22:42:11.307634+00:00",
        "meta_object_name": "STARLINK-35476",
        "meta_object_id": "2025-280E",
        "meta_epoch": "2025-12-12T06:00:00.999648",
        "meta_mean_motion": 15.81945789,
        "meta_eccentricity": 0.00037225,
        "meta_inclination": 69.9927,
        "meta_ra_of_asc_node": 200.2312,
        "meta_arg_of_pericenter": 276.4335,
        "meta_mean_anomaly": 189.8115,
        "meta_ephemeris_type": 0,
        "meta_classification_type": "U",
        "meta_norad_cat_id": 66825,
        "meta_element_set_no": 999,
        "meta_rev_at_epoch": 267,
        "meta_bstar": -0.0097892377,
        "meta_mean_motion_dot": -0.01725752,
        "meta_mean_motion_ddot": 0,
        "tle_line1": "1 66825U 25280E   25346.25001157 -.01725752  00000+0 -97892-2 0  9992",
        "tle_line2": "2 66825  69.9927 200.2312 0003722 276.4335 189.8115 15.81945789  2670"
      },
      "geometry": {
        "type": "Point",
        "coordinates": [
          -33.37401171556365,
          65.06914116407873
        ]
      }
    },
    {
      "type": "Feature",
      "properties": {
        "norad_id": 66826,
        "name": "STARLINK-35898",
        "group": "last-30-days",
        "lat": 63.953978726680916,
        "lon": -29.96680280135359,
        "alt_km": 327.4461217556827,
        "timestamp": "2025-12-12T22:42:11.307643+00:00",
        "meta_object_name": "STARLINK-35898",
        "meta_object_id": "2025-280F",
        "meta_epoch": "2025-12-12T06:00:00.999648",
        "meta_mean_motion": 15.8196788,
        "meta_eccentricity": 0.00035962,
        "meta_inclination": 69.9927,
        "meta_ra_of_asc_node": 200.2289,
        "meta_arg_of_pericenter": 272.6014,
        "meta_mean_anomaly": 195.424,
        "meta_ephemeris_type": 0,
        "meta_classification_type": "U",
        "meta_norad_cat_id": 66826,
        "meta_element_set_no": 999,
        "meta_rev_at_epoch": 282,
        "meta_bstar": -0.0097576594,
        "meta_mean_motion_dot": -0.01722346,
        "meta_mean_motion_ddot": 0,
        "tle_line1": "1 66826U 25280F   25346.25001157 -.01722346  00000+0 -97577-2 0  9999",
        "tle_line2": "2 66826  69.9927 200.2289 0003596 272.6014 195.4240 15.81967880  2820"
      },
      "geometry": {
        "type": "Point",
        "coordinates": [
          -29.96680280135359,
          63.953978726680916
        ]
      }
    },
    {
      "type": "Feature",
      "properties": {
        "norad_id": 66827,
        "name": "STARLINK-35959",
        "group": "last-30-days",
        "lat": 62.643112493148664,
        "lon": -26.531332057325898,
        "alt_km": 327.7002860741195,
        "timestamp": "2025-12-12T22:42:11.307653+00:00",
        "meta_object_name": "STARLINK-35959",
        "meta_object_id": "2025-280G",
        "meta_epoch": "2025-12-12T06:00:00.999648",
        "meta_mean_motion": 15.81982799,
        "meta_eccentricity": 0.00037186,
        "meta_inclination": 69.9925,
        "meta_ra_of_asc_node": 200.2265,
        "meta_arg_of_pericenter": 275.8843,
        "meta_mean_anomaly": 194.1517,
        "meta_ephemeris_type": 0,
        "meta_classification_type": "U",
        "meta_norad_cat_id": 66827,
        "meta_element_set_no": 999,
        "meta_rev_at_epoch": 282,
        "meta_bstar": -0.0098328359,
        "meta_mean_motion_dot": -0.01734956,
        "meta_mean_motion_ddot": 0,
        "tle_line1": "1 66827U 25280G   25346.25001157 -.01734956  00000+0 -98328-2 0  9995",
        "tle_line2": "2 66827  69.9925 200.2265 0003718 275.8843 194.1517 15.81982799  2823"
      },
      "geometry": {
        "type": "Point",
        "coordinates": [
          -26.531332057325898,
          62.643112493148664
        ]
      }
    },
    {
      "type": "Feature",
      "properties": {
        "norad_id": 66828,
        "name": "STARLINK-35982",
        "group": "last-30-days",
        "lat": 59.69737859993372,
        "lon": -20.338554721127707,
        "alt_km": 327.97957825330013,
        "timestamp": "2025-12-12T22:42:11.307662+00:00",
        "meta_object_name": "STARLINK-35982",
        "meta_object_id": "2025-280H",
        "meta_epoch": "2025-12-12T06:00:00.999648",
        "meta_mean_motion": 15.81990364,
        "meta_eccentricity": 0.00036581,
        "meta_inclination": 69.9924,
        "meta_ra_of_asc_node": 200.2217,
        "meta_arg_of_pericenter": 275.1035,
        "meta_mean_anomaly": 199.1345,
        "meta_ephemeris_type": 0,
        "meta_classification_type": "U",
        "meta_norad_cat_id": 66828,
        "meta_element_set_no": 999,
        "meta_rev_at_epoch": 282,
        "meta_bstar": -0.0099288847,
        "meta_mean_motion_dot": -0.01749965,
        "meta_mean_motion_ddot": 0,
        "tle_line1": "1 66828U 25280H   25346.25001157 -.01749965  00000+0 -99289-2 0  9999",
        "tle_line2": "2 66828  69.9924 200.2217 0003658 275.1035 199.1345 15.81990364  2820"
      },
      "geometry": {
        "type": "Point",
        "coordinates": [
          -20.338554721127707,
          59.69737859993372
        ]
      }
    },
    {
      "type": "Feature",
      "properties": {
        "norad_id": 66829,
        "name": "STARLINK-36084",
        "group": "last-30-days",
        "lat": 61.205258968373116,
        "lon": -23.289258573266558,
        "alt_km": 327.81056134441496,
        "timestamp": "2025-12-12T22:42:11.307672+00:00",
        "meta_object_name": "STARLINK-36084",
        "meta_object_id": "2025-280J",
        "meta_epoch": "2025-12-12T06:00:00.999648",
        "meta_mean_motion": 15.81985302,
        "meta_eccentricity": 0.00036353,
        "meta_inclination": 69.9925,
        "meta_ra_of_asc_node": 200.2241,
        "meta_arg_of_pericenter": 277.2502,
        "meta_mean_anomaly": 194.8833,
        "meta_ephemeris_type": 0,
        "meta_classification_type": "U",
        "meta_norad_cat_id": 66829,
        "meta_element_set_no": 999,
        "meta_rev_at_epoch": 266,
        "meta_bstar": -0.0098640952,
        "meta_mean_motion_dot": -0.0173977,
        "meta_mean_motion_ddot": 0,
        "tle_line1": "1 66829U 25280J   25346.25001157 -.01739770  00000+0 -98641-2 0  9994",
        "tle_line2": "2 66829  69.9925 200.2241 0003635 277.2502 194.8833 15.81985302  2668"
      },
      "geometry": {
        "type": "Point",
        "coordinates": [
          -23.289258573266558,
          61.205258968373116
        ]
      }
    }
  ]
}